{"type": "FeatureCollection", "features": [{"type": "Feature", "properties": {"name": "國立陽明交通大學新竹博愛校區", "src": "NYCU campus cadastral block (TWD97 EPSG:3826 → WGS84), MDATE 202308"}, "geometry": {"type": "MultiPolygon", "coordinates": [[[[120.9803304, 24.7995092], [120.9804725, 24.7993205], [120.9805154, 24.7993498], [120.9806348, 24.799172], [120.9806376, 24.7991678], [120.9806373, 24.7991674], [120.980649, 24.7991507], [120.9806507, 24.7991483], [120.9806553, 24.7991418], [120.9806677, 24.7991241], [120.9807627, 24.7991805], [120.9808616, 24.7992392], [120.9809143, 24.7992297], [120.9809682, 24.7991652], [120.9810435, 24.7990749], [120.9810916, 24.7990165], [120.9811373, 24.798961], [120.9811461, 24.7989504], [120.981166, 24.7989263], [120.9812403, 24.798836], [120.9813878, 24.7986555], [120.9815512, 24.7984555], [120.9815794, 24.7984732], [120.9816382, 24.79851], [120.9816739, 24.7985345], [120.9824932, 24.7985506], [120.9826036, 24.7987404], [120.982667, 24.7987121], [120.9827659, 24.798668], [120.9828648, 24.7986239], [120.9829637, 24.7985797], [120.9830555, 24.7985388], [120.9830586, 24.7985374], [120.9830626, 24.7985356], [120.983152, 24.7984957], [120.9832509, 24.7984516], [120.9832952, 24.7984317], [120.9833056, 24.798427], [120.9833406, 24.7984112], [120.9833723, 24.7983969], [120.9834134, 24.7983784], [120.9834572, 24.7983586], [120.9834712, 24.7983523], [120.9835147, 24.7983333], [120.9835155, 24.798333], [120.9835196, 24.7983312], [120.9835217, 24.7983302], [120.9836206, 24.7982861], [120.9837195, 24.7982419], [120.9838185, 24.7981978], [120.9839174, 24.7981536], [120.9840459, 24.7980962], [120.9841703, 24.7980407], [120.9842692, 24.797996], [120.9843438, 24.7979623], [120.9843978, 24.7979384], [120.9843977, 24.7979379], [120.984394, 24.7979196], [120.98438, 24.7978489], [120.9843646, 24.797771], [120.9843618, 24.7977572], [120.9843417, 24.7976899], [120.9843286, 24.7976459], [120.9843147, 24.7975995], [120.9843144, 24.7975986], [120.9842849, 24.7975236], [120.984261, 24.7974624], [120.9842089, 24.7973543], [120.9841566, 24.7972656], [120.9840444, 24.7971581], [120.9839427, 24.7970819], [120.9838032, 24.7969759], [120.9835938, 24.7968208], [120.9833736, 24.7966544], [120.9832947, 24.7966009], [120.9831732, 24.7965252], [120.9830847, 24.7964804], [120.9830626, 24.7964729], [120.9830586, 24.7964716], [120.9830555, 24.7964705], [120.9829775, 24.7964441], [120.9828582, 24.7964121], [120.9827698, 24.7963895], [120.9826268, 24.796354], [120.9824497, 24.7963091], [120.9821961, 24.7962569], [120.9821808, 24.7963017], [120.982172, 24.7963273], [120.9817319, 24.7962149], [120.981734, 24.7962], [120.9812384, 24.7960889], [120.981191, 24.7962934], [120.9811569, 24.7964429], [120.9811159, 24.7965582], [120.9810497, 24.7967785], [120.9806433, 24.7966974], [120.980622, 24.7970161], [120.9805926, 24.7972624], [120.9805322, 24.797249], [120.9805166, 24.7972462], [120.9805013, 24.7972434], [120.9804786, 24.797238], [120.9804768, 24.7972368], [120.9804509, 24.7972311], [120.98045, 24.7972325], [120.9804111, 24.7972223], [120.9803667, 24.7972125], [120.9802593, 24.7973386], [120.9801785, 24.7973866], [120.9799941, 24.797331], [120.9798611, 24.7973675], [120.9795857, 24.7977628], [120.9795856, 24.7977629], [120.9794673, 24.7978993], [120.9794663, 24.7979138], [120.9794644, 24.7979266], [120.9794643, 24.797937], [120.9794057, 24.7980212], [120.979779, 24.7982908], [120.9798551, 24.7983105], [120.9798659, 24.7983223], [120.9798762, 24.798333], [120.9798763, 24.7983331], [120.9798763, 24.7983331], [120.9798764, 24.7983332], [120.9798768, 24.7983335], [120.9799463, 24.7983886], [120.9798826, 24.7984658], [120.9798605, 24.7984926], [120.9795763, 24.7988506], [120.9795387, 24.7989054], [120.9795042, 24.7989502], [120.979496, 24.7989608], [120.9794795, 24.7989822], [120.9795988, 24.7990561], [120.9797116, 24.799126], [120.9797137, 24.7991273], [120.9799174, 24.7992534], [120.979999, 24.799304], [120.9800213, 24.7993178], [120.9803304, 24.7995092]]]]}}]}