{"type": "FeatureCollection", "features": [{"type": "Feature", "properties": {"name": "國立陽明交通大學", "src": "NYCU campus cadastral block (TWD97 EPSG:3826 → WGS84), MDATE 202508"}, "geometry": {"type": "MultiPolygon", "coordinates": [[[[120.9973165, 24.790727], [120.997796, 24.7902668], [120.9978393, 24.7902252], [120.9979181, 24.7899657], [120.9979553, 24.7898391], [120.9979719, 24.789807], [120.9980125, 24.7897961], [120.9980149, 24.7897954], [120.998385, 24.7896951], [120.9985944, 24.7895311], [120.9981945, 24.7890961], [120.998503, 24.7888557], [120.9985933, 24.7888309], [120.998635, 24.7888309], [120.9987161, 24.7889055], [120.9988511, 24.788966], [120.9989255, 24.7890121], [120.9989272, 24.7890107], [120.9989336, 24.7890171], [120.9993693, 24.7894547], [120.9994062, 24.7894784], [120.9994444, 24.7894923], [120.9994932, 24.7895031], [120.9995458, 24.7895057], [120.9995997, 24.7895002], [120.9997617, 24.7894608], [120.9998254, 24.7894378], [120.9999929, 24.7893832], [121.0001761, 24.7893234], [121.0006323, 24.7893064], [121.0006568, 24.7893055], [121.0006871, 24.7893044], [121.0006887, 24.7892786], [121.0006967, 24.7892621], [121.000715, 24.7892513], [121.0008362, 24.7892058], [121.0008989, 24.7891724], [121.0009961, 24.7891102], [121.001103, 24.7890081], [121.0012226, 24.7889039], [121.001337, 24.7887991], [121.0013816, 24.7887559], [121.0014145, 24.7887225], [121.0014644, 24.7886552], [121.0015377, 24.7885464], [121.0015808, 24.7884723], [121.0016521, 24.7884003], [121.0017414, 24.7883232], [121.001922, 24.7881871], [121.0019419, 24.788172], [121.0020975, 24.7878556], [121.0021185, 24.7878007], [121.002127, 24.7877357], [121.0021176, 24.787681], [121.0020984, 24.7876182], [121.0020669, 24.7875427], [121.0020511, 24.7874756], [121.0020472, 24.7874086], [121.0020482, 24.7873354], [121.0020485, 24.7873164], [121.0020603, 24.7872756], [121.0021134, 24.787227], [121.002395, 24.7871676], [121.0023463, 24.7870097], [121.0023417, 24.7869863], [121.002324, 24.7868959], [121.0022757, 24.786767], [121.0022571, 24.7867175], [121.0021615, 24.7864881], [121.0020306, 24.7861827], [121.0020017, 24.7861702], [121.0019748, 24.7861535], [121.0019339, 24.7861262], [121.0018821, 24.7860823], [121.0018061, 24.7860228], [121.0016626, 24.7859034], [121.0015819, 24.7858289], [121.0015048, 24.785752], [121.0014356, 24.785677], [121.0013858, 24.7856222], [121.0013677, 24.7856002], [121.0013303, 24.7855549], [121.0012773, 24.7854883], [121.0012277, 24.78542], [121.0011901, 24.7853665], [121.001184, 24.7853573], [121.0011522, 24.7853087], [121.0011015, 24.7852267], [121.0010639, 24.7851601], [121.0010284, 24.7850928], [121.0009768, 24.7849968], [121.0009198, 24.7848864], [121.0008694, 24.7847875], [121.0008234, 24.7846973], [121.0007771, 24.7846062], [121.0007309, 24.7845118], [121.0006924, 24.7844221], [121.0006572, 24.7843398], [121.0006205, 24.7842489], [121.0006043, 24.7842034], [121.0005534, 24.7840533], [121.0005167, 24.783934], [121.0004893, 24.7838314], [121.0004818, 24.7838006], [121.000461, 24.7837149], [121.0004589, 24.7837066], [121.0004385, 24.7836228], [121.0004271, 24.7835948], [121.0004139, 24.7835781], [121.0003984, 24.7835664], [121.00038, 24.7835591], [121.0003665, 24.7835541], [121.0001647, 24.783575], [120.999749, 24.7835963], [120.9997061, 24.7835978], [120.9996923, 24.7835982], [120.9996182, 24.7835993], [120.9996107, 24.783599], [120.9995866, 24.7835976], [120.999548, 24.783595], [120.999505, 24.7835917], [120.9994439, 24.7835836], [120.9993532, 24.7835642], [120.9992815, 24.7835453], [120.9992339, 24.7835299], [120.9991877, 24.7835125], [120.9991483, 24.7834936], [120.9991177, 24.7834791], [120.999065, 24.783455], [120.9990585, 24.7834513], [120.9990046, 24.7834207], [120.9989551, 24.7833856], [120.9989142, 24.7833507], [120.9988754, 24.7833142], [120.9987997, 24.7832346], [120.998765, 24.7831936], [120.9987341, 24.7831546], [120.9987083, 24.7831201], [120.9986897, 24.7830875], [120.9986686, 24.7830498], [120.9986535, 24.7830155], [120.998637, 24.7829782], [120.9986223, 24.7829407], [120.9986116, 24.7829083], [120.998609, 24.7828999], [120.9986029, 24.7828799], [120.9985939, 24.7828464], [120.9985728, 24.7827586], [120.9985679, 24.7827343], [120.99856, 24.7827238], [120.9985496, 24.7827152], [120.9985383, 24.7827105], [120.9985274, 24.7827074], [120.9975812, 24.7829321], [120.9975089, 24.78295], [120.9974622, 24.7829628], [120.9973955, 24.7829825], [120.9973536, 24.7829956], [120.997307, 24.783014], [120.9972677, 24.7830306], [120.9971943, 24.7830663], [120.9971075, 24.7831097], [120.9970592, 24.7831337], [120.9970048, 24.7831642], [120.9969359, 24.7832036], [120.9969236, 24.7832106], [120.9968454, 24.7832593], [120.9968437, 24.7832605], [120.9967609, 24.7833163], [120.9966946, 24.7833602], [120.9966489, 24.783392], [120.9966411, 24.7833972], [120.9965805, 24.7834377], [120.9964994, 24.7834918], [120.9964266, 24.7835405], [120.9963587, 24.7835843], [120.9962967, 24.7836254], [120.9962321, 24.7836675], [120.9961728, 24.7837059], [120.9961622, 24.7837122], [120.9961303, 24.7837314], [120.9960912, 24.7837532], [120.9960543, 24.7837714], [120.9960031, 24.7837935], [120.9959853, 24.7838005], [120.9959526, 24.7838135], [120.9959019, 24.7838295], [120.9958418, 24.7838453], [120.9957765, 24.7838584], [120.9957109, 24.7838682], [120.995647, 24.7838748], [120.995614, 24.7838771], [120.9956077, 24.7838788], [120.9955476, 24.7838801], [120.9954021, 24.7838773], [120.9949221, 24.7838547], [120.9948746, 24.7838524], [120.994698, 24.7838378], [120.9942455, 24.7838194], [120.9941573, 24.7838187], [120.9941263, 24.7838226], [120.9940798, 24.7838309], [120.9940228, 24.7838432], [120.9939367, 24.7838673], [120.993877, 24.783891], [120.9938004, 24.7839347], [120.9937639, 24.7839584], [120.993732, 24.7839788], [120.9936492, 24.7840456], [120.9934957, 24.7841837], [120.9933968, 24.7842727], [120.9933968, 24.7842728], [120.9933968, 24.7842728], [120.9933265, 24.7843638], [120.9932775, 24.7844273], [120.993251, 24.7844615], [120.993206, 24.7844581], [120.993181, 24.7844658], [120.9931643, 24.7844803], [120.9931465, 24.7844959], [120.9931286, 24.7845115], [120.9933402, 24.7847129], [120.9933643, 24.7847462], [120.993375, 24.7847668], [120.9933794, 24.7847894], [120.9933795, 24.7848199], [120.9933719, 24.784855], [120.993357, 24.7848931], [120.99334, 24.7849248], [120.9933147, 24.7849587], [120.9932511, 24.7850407], [120.9930254, 24.7852914], [120.9930029, 24.7853174], [120.9929877, 24.7853384], [120.9929726, 24.785364], [120.9929627, 24.7853931], [120.992962, 24.7854135], [120.9929664, 24.7854409], [120.9929689, 24.7854504], [120.9929942, 24.7855484], [120.9930389, 24.7857211], [120.9930542, 24.7858043], [120.9930607, 24.7858466], [120.9930619, 24.7858825], [120.9930608, 24.7859262], [120.9930553, 24.7859649], [120.993049, 24.785994], [120.9930405, 24.7860222], [120.9930292, 24.7860478], [120.9930039, 24.7860824], [120.9929809, 24.7860999], [120.9929531, 24.7861146], [120.9929231, 24.7861267], [120.992745, 24.7862], [120.9927046, 24.7862168], [120.992669, 24.7862336], [120.9926404, 24.7862491], [120.9926203, 24.7862605], [120.9925997, 24.786272], [120.9925791, 24.7862865], [120.9925621, 24.7863019], [120.9925436, 24.7863225], [120.9925286, 24.7863478], [120.992515, 24.7863796], [120.9925011, 24.7864175], [120.9924896, 24.7864619], [120.9924855, 24.7865089], [120.9922605, 24.7865081], [120.9922559, 24.786508], [120.9922475, 24.7865095], [120.9922396, 24.7865126], [120.9922327, 24.7865171], [120.9922268, 24.7865228], [120.9922225, 24.7865295], [120.9922197, 24.7865369], [120.9922187, 24.7865447], [120.9922195, 24.7865524], [120.992222, 24.7865599], [120.9922262, 24.7865667], [120.9922318, 24.7865725], [120.9922385, 24.7865771], [120.9922326, 24.7867619], [120.9922331, 24.7868328], [120.9922496, 24.7869915], [120.9923043, 24.7872244], [120.992349, 24.7873334], [120.9923829, 24.7874536], [120.9924032, 24.7875543], [120.9924267, 24.7876255], [120.9924395, 24.7876536], [120.9924503, 24.7876735], [120.9924634, 24.7876942], [120.9924767, 24.7877121], [120.992493, 24.787732], [120.992511, 24.7877509], [120.9925285, 24.78777], [120.9925471, 24.7877883], [120.9925656, 24.7878027], [120.9925905, 24.7878202], [120.992773, 24.7879373], [120.9928222, 24.7879689], [120.9930999, 24.7881471], [120.9931458, 24.7881758], [120.9931733, 24.7881925], [120.9931907, 24.7882039], [120.9932185, 24.7882207], [120.9932382, 24.7882372], [120.993247, 24.7882459], [120.9932724, 24.788281], [120.9932791, 24.7883006], [120.993281, 24.7883165], [120.9932821, 24.7883244], [120.9932915, 24.7885138], [120.9933026, 24.788631], [120.9933103, 24.7886701], [120.9933205, 24.7887161], [120.9933313, 24.7887574], [120.9933396, 24.7887862], [120.9933687, 24.788881], [120.9933843, 24.7889168], [120.9934003, 24.7889474], [120.9934153, 24.7889736], [120.9934347, 24.7890065], [120.9934549, 24.7890379], [120.9934716, 24.789063], [120.993487, 24.7890841], [120.9935013, 24.7891034], [120.9935175, 24.7891228], [120.9935371, 24.7891452], [120.9935593, 24.7891656], [120.9936024, 24.7891981], [120.9935511, 24.7892926], [120.9964189, 24.7911167], [120.9966505, 24.7910886], [120.9969051, 24.7910111], [120.9973165, 24.790727]]]]}}]}